CCSDS_OMM_VERS = 2.0
CREATION_DATE  = 
ORIGINATOR     = 

OBJECT_NAME    = 2025-274C
OBJECT_ID      = 2025-274C
CENTER_NAME    = EARTH
REF_FRAME      = TEME
TIME_SYSTEM    = UTC
MEAN_ELEMENT_THEORY = SGP/SGP4

EPOCH          = 2025-12-09T06:17:50.661024
MEAN_MOTION    = 14.91872383
ECCENTRICITY   = .00104134
INCLINATION    = 97.7388
RA_OF_ASC_NODE = 270.5182
ARG_OF_PERICENTER = 271.0321
MEAN_ANOMALY   = 88.9705

EPHEMERIS_TYPE = 0
CLASSIFICATION_TYPE = U
NORAD_CAT_ID   = 66652
ELEMENT_SET_NO = 999
REV_AT_EPOCH   = 188
BSTAR          = .3647652E-3
MEAN_MOTION_DOT = .3633E-4
MEAN_MOTION_DDOT = 0

CCSDS_OMM_VERS = 2.0
CREATION_DATE  = 
ORIGINATOR     = 

OBJECT_NAME    = 2025-274D
OBJECT_ID      = 2025-274D
CENTER_NAME    = EARTH
REF_FRAME      = TEME
TIME_SYSTEM    = UTC
MEAN_ELEMENT_THEORY = SGP/SGP4

EPOCH          = 2025-12-09T06:17:45.528000
MEAN_MOTION    = 14.91876438
ECCENTRICITY   = .00112848
INCLINATION    = 97.7386
RA_OF_ASC_NODE = 270.5180
ARG_OF_PERICENTER = 266.9317
MEAN_ANOMALY   = 93.0611

EPHEMERIS_TYPE = 0
CLASSIFICATION_TYPE = U
NORAD_CAT_ID   = 66653
ELEMENT_SET_NO = 999
REV_AT_EPOCH   = 188
BSTAR          = .37130229E-3
MEAN_MOTION_DOT = .3701E-4
MEAN_MOTION_DDOT = 0

CCSDS_OMM_VERS = 2.0
CREATION_DATE  = 
ORIGINATOR     = 

OBJECT_NAME    = JACK E
OBJECT_ID      = 2025-274E
CENTER_NAME    = EARTH
REF_FRAME      = TEME
TIME_SYSTEM    = UTC
MEAN_ELEMENT_THEORY = SGP/SGP4

EPOCH          = 2025-12-09T06:15:44.792640
MEAN_MOTION    = 14.92051596
ECCENTRICITY   = .00118673
INCLINATION    = 97.7389
RA_OF_ASC_NODE = 270.5204
ARG_OF_PERICENTER = 268.5487
MEAN_ANOMALY   = 91.4373

EPHEMERIS_TYPE = 0
CLASSIFICATION_TYPE = U
NORAD_CAT_ID   = 66654
ELEMENT_SET_NO = 999
REV_AT_EPOCH   = 188
BSTAR          = .43302811E-3
MEAN_MOTION_DOT = .4345E-4
MEAN_MOTION_DDOT = 0

CCSDS_OMM_VERS = 2.0
CREATION_DATE  = 
ORIGINATOR     = 

OBJECT_NAME    = 2025-274F
OBJECT_ID      = 2025-274F
CENTER_NAME    = EARTH
REF_FRAME      = TEME
TIME_SYSTEM    = UTC
MEAN_ELEMENT_THEORY = SGP/SGP4

EPOCH          = 2025-12-08T18:57:10.718496
MEAN_MOTION    = 14.92504145
ECCENTRICITY   = .00054909
INCLINATION    = 97.7329
RA_OF_ASC_NODE = 270.0601
ARG_OF_PERICENTER = 323.8556
MEAN_ANOMALY   = 36.2292

EPHEMERIS_TYPE = 0
CLASSIFICATION_TYPE = U
NORAD_CAT_ID   = 66655
ELEMENT_SET_NO = 999
REV_AT_EPOCH   = 181
BSTAR          = .1516128E-2
MEAN_MOTION_DOT = .15539E-3
MEAN_MOTION_DDOT = 0

CCSDS_OMM_VERS = 2.0
CREATION_DATE  = 
ORIGINATOR     = 

OBJECT_NAME    = 2025-274G
OBJECT_ID      = 2025-274G
CENTER_NAME    = EARTH
REF_FRAME      = TEME
TIME_SYSTEM    = UTC
MEAN_ELEMENT_THEORY = SGP/SGP4

EPOCH          = 2025-12-09T06:13:32.018304
MEAN_MOTION    = 14.92239963
ECCENTRICITY   = .00124937
INCLINATION    = 97.7386
RA_OF_ASC_NODE = 270.5219
ARG_OF_PERICENTER = 270.3562
MEAN_ANOMALY   = 89.6225

EPHEMERIS_TYPE = 0
CLASSIFICATION_TYPE = U
NORAD_CAT_ID   = 66656
ELEMENT_SET_NO = 999
REV_AT_EPOCH   = 188
BSTAR          = .45690294E-3
MEAN_MOTION_DOT = .4611E-4
MEAN_MOTION_DDOT = 0

CCSDS_OMM_VERS = 2.0
CREATION_DATE  = 
ORIGINATOR     = 

OBJECT_NAME    = SPIRONE
OBJECT_ID      = 2025-274H
CENTER_NAME    = EARTH
REF_FRAME      = TEME
TIME_SYSTEM    = UTC
MEAN_ELEMENT_THEORY = SGP/SGP4

EPOCH          = 2025-12-08T20:32:05.028864
MEAN_MOTION    = 14.92414576
ECCENTRICITY   = .0010976
INCLINATION    = 97.7386
RA_OF_ASC_NODE = 270.1280
ARG_OF_PERICENTER = 290.7866
MEAN_ANOMALY   = 69.2177

EPHEMERIS_TYPE = 0
CLASSIFICATION_TYPE = U
NORAD_CAT_ID   = 66657
ELEMENT_SET_NO = 999
REV_AT_EPOCH   = 182
BSTAR          = .36917E-3
MEAN_MOTION_DOT = .3729E-4
MEAN_MOTION_DDOT = 0

CCSDS_OMM_VERS = 2.0
CREATION_DATE  = 
ORIGINATOR     = 

OBJECT_NAME    = 2025-274J
OBJECT_ID      = 2025-274J
CENTER_NAME    = EARTH
REF_FRAME      = TEME
TIME_SYSTEM    = UTC
MEAN_ELEMENT_THEORY = SGP/SGP4

EPOCH          = 2025-12-09T06:09:14.929920
MEAN_MOTION    = 14.92591499
ECCENTRICITY   = .0011536
INCLINATION    = 97.7385
RA_OF_ASC_NODE = 270.5255
ARG_OF_PERICENTER = 292.2677
MEAN_ANOMALY   = 67.7318

EPHEMERIS_TYPE = 0
CLASSIFICATION_TYPE = U
NORAD_CAT_ID   = 66658
ELEMENT_SET_NO = 999
REV_AT_EPOCH   = 188
BSTAR          = .42448588E-3
MEAN_MOTION_DOT = .4317E-4
MEAN_MOTION_DDOT = 0

CCSDS_OMM_VERS = 2.0
CREATION_DATE  = 
ORIGINATOR     = 

OBJECT_NAME    = JACK K
OBJECT_ID      = 2025-274K
CENTER_NAME    = EARTH
REF_FRAME      = TEME
TIME_SYSTEM    = UTC
MEAN_ELEMENT_THEORY = SGP/SGP4

EPOCH          = 2025-12-09T06:06:59.648256
MEAN_MOTION    = 14.92777081
ECCENTRICITY   = .00122822
INCLINATION    = 97.7387
RA_OF_ASC_NODE = 270.5279
ARG_OF_PERICENTER = 293.5039
MEAN_ANOMALY   = 66.4890

EPHEMERIS_TYPE = 0
CLASSIFICATION_TYPE = U
NORAD_CAT_ID   = 66659
ELEMENT_SET_NO = 999
REV_AT_EPOCH   = 188
BSTAR          = .40599886E-3
MEAN_MOTION_DOT = .4146E-4
MEAN_MOTION_DDOT = 0

CCSDS_OMM_VERS = 2.0
CREATION_DATE  = 
ORIGINATOR     = 

OBJECT_NAME    = K-HERO
OBJECT_ID      = 2025-274L
CENTER_NAME    = EARTH
REF_FRAME      = TEME
TIME_SYSTEM    = UTC
MEAN_ELEMENT_THEORY = SGP/SGP4

EPOCH          = 2025-12-09T06:05:10.747104
MEAN_MOTION    = 14.92929038
ECCENTRICITY   = .0012893
INCLINATION    = 97.7391
RA_OF_ASC_NODE = 270.5300
ARG_OF_PERICENTER = 294.0935
MEAN_ANOMALY   = 65.8935

EPHEMERIS_TYPE = 0
CLASSIFICATION_TYPE = U
NORAD_CAT_ID   = 66660
ELEMENT_SET_NO = 999
REV_AT_EPOCH   = 188
BSTAR          = .45794116E-3
MEAN_MOTION_DOT = .4703E-4
MEAN_MOTION_DDOT = 0

CCSDS_OMM_VERS = 2.0
CREATION_DATE  = 
ORIGINATOR     = 

OBJECT_NAME    = SNUGLITE-III
OBJECT_ID      = 2025-274M
CENTER_NAME    = EARTH
REF_FRAME      = TEME
TIME_SYSTEM    = UTC
MEAN_ELEMENT_THEORY = SGP/SGP4

EPOCH          = 2025-12-09T07:39:50.881824
MEAN_MOTION    = 14.93071030
ECCENTRICITY   = .00135426
INCLINATION    = 97.7389
RA_OF_ASC_NODE = 270.5972
ARG_OF_PERICENTER = 294.8335
MEAN_ANOMALY   = 65.1476

EPHEMERIS_TYPE = 0
CLASSIFICATION_TYPE = U
NORAD_CAT_ID   = 66661
ELEMENT_SET_NO = 999
REV_AT_EPOCH   = 189
BSTAR          = .32604047E-3
MEAN_MOTION_DOT = .3344E-4
MEAN_MOTION_DDOT = 0

CCSDS_OMM_VERS = 2.0
CREATION_DATE  = 
ORIGINATOR     = 

OBJECT_NAME    = 2025-274N
OBJECT_ID      = 2025-274N
CENTER_NAME    = EARTH
REF_FRAME      = TEME
TIME_SYSTEM    = UTC
MEAN_ELEMENT_THEORY = SGP/SGP4

EPOCH          = 2025-12-09T07:39:06.697728
MEAN_MOTION    = 14.93119374
ECCENTRICITY   = .00139057
INCLINATION    = 97.7389
RA_OF_ASC_NODE = 270.5980
ARG_OF_PERICENTER = 294.3348
MEAN_ANOMALY   = 65.6419

EPHEMERIS_TYPE = 0
CLASSIFICATION_TYPE = U
NORAD_CAT_ID   = 66662
ELEMENT_SET_NO = 999
REV_AT_EPOCH   = 189
BSTAR          = .30732359E-3
MEAN_MOTION_DOT = .3153E-4
MEAN_MOTION_DDOT = 0

CCSDS_OMM_VERS = 2.0
CREATION_DATE  = 
ORIGINATOR     = 

OBJECT_NAME    = KSLV-II R/B
OBJECT_ID      = 2025-274P
CENTER_NAME    = EARTH
REF_FRAME      = TEME
TIME_SYSTEM    = UTC
MEAN_ELEMENT_THEORY = SGP/SGP4

EPOCH          = 2025-12-06T19:27:04.446432
MEAN_MOTION    = 14.97226496
ECCENTRICITY   = .00484111
INCLINATION    = 97.7412
RA_OF_ASC_NODE = 268.2109
ARG_OF_PERICENTER = 339.2416
MEAN_ANOMALY   = 20.6839

EPHEMERIS_TYPE = 0
CLASSIFICATION_TYPE = U
NORAD_CAT_ID   = 66663
ELEMENT_SET_NO = 999
REV_AT_EPOCH   = 152
BSTAR          = .53388811E-3
MEAN_MOTION_DOT = .6269E-4
MEAN_MOTION_DDOT = 0

