2025-274C               
1 66652U 25274C   25343.26239191  .00003633  00000+0  36477-3 0  9999
2 66652  97.7388 270.5182 0010413 271.0321  88.9705 14.91872383  1889
2025-274D               
1 66653U 25274D   25343.26233250  .00003701  00000+0  37130-3 0  9993
2 66653  97.7386 270.5180 0011284 266.9317  93.0611 14.91876438  1889
JACK E                  
1 66654U 25274E   25343.26093510  .00004345  00000+0  43303-3 0  9991
2 66654  97.7389 270.5204 0011867 268.5487  91.4373 14.92051596  1881
2025-274F               
1 66655U 25274F   25342.78970739  .00015539  00000+0  15161-2 0  9992
2 66655  97.7329 270.0601 0005490 323.8556  36.2292 14.92504145  1812
2025-274G               
1 66656U 25274G   25343.25939836  .00004611  00000+0  45690-3 0  9999
2 66656  97.7386 270.5219 0012493 270.3562  89.6225 14.92239963  1888
SPIRONE                 
1 66657U 25274H   25342.85561376  .00003729  00000+0  36917-3 0  9996
2 66657  97.7386 270.1280 0010976 290.7866  69.2177 14.92414576  1829
2025-274J               
1 66658U 25274J   25343.25642280  .00004317  00000+0  42449-3 0  9997
2 66658  97.7385 270.5255 0011536 292.2677  67.7318 14.92591499  1881
JACK K                  
1 66659U 25274K   25343.25485704  .00004146  00000+0  40600-3 0  9991
2 66659  97.7387 270.5279 0012282 293.5039  66.4890 14.92777081  1889
K-HERO                  
1 66660U 25274L   25343.25359661  .00004703  00000+0  45794-3 0  9993
2 66660  97.7391 270.5300 0012893 294.0935  65.8935 14.92929038  1884
SNUGLITE-III            
1 66661U 25274M   25343.31933891  .00003344  00000+0  32604-3 0  9990
2 66661  97.7389 270.5972 0013542 294.8335  65.1476 14.93071030  1896
2025-274N               
1 66662U 25274N   25343.31882752  .00003153  00000+0  30732-3 0  9998
2 66662  97.7389 270.5980 0013905 294.3348  65.6419 14.93119374  1894
KSLV-II R/B             
1 66663U 25274P   25340.81046813  .00006269  00000+0  53389-3 0  9995
2 66663  97.7412 268.2109 0048411 339.2416  20.6839 14.97226496  1529
